{
  "norad_id": 64700,
  "name": "STARLINK-34560",
  "history": [
    {
      "epoch": "2026-03-28T19:58:55.447680Z",
      "apogee_km": 574.1505332380366,
      "perigee_km": 569.9078737807667,
      "latitude_deg": 3.75699842084634e-05,
      "longitude_deg": 140.36201129417012,
      "height_km": 574.5471828881407,
      "semi_major_axis_km": 6950.166203509401,
      "eccentricity": 0.00030522,
      "inclination_deg": 69.9999,
      "raan_deg": 266.3404,
      "arg_perigee_deg": 267.5559,
      "mean_anomaly_deg": 92.5251,
      "mean_motion_rev_day": 14.9833863
    },
    {
      "epoch": "2026-03-29T21:37:04.443168Z",
      "apogee_km": 574.2009423555273,
      "perigee_km": 569.8709845992807,
      "latitude_deg": -1.0155432879770945e-05,
      "longitude_deg": 112.07808699771972,
      "height_km": 574.4944040145326,
      "semi_major_axis_km": 6950.172963477404,
      "eccentricity": 0.0003115,
      "inclination_deg": 69.9996,
      "raan_deg": 263.6468,
      "arg_perigee_deg": 269.1825,
      "mean_anomaly_deg": 90.8977,
      "mean_motion_rev_day": 14.98336444
    },
    {
      "epoch": "2026-03-29T21:37:04.444032Z",
      "apogee_km": 574.2011508607166,
      "perigee_km": 569.8707760940924,
      "latitude_deg": -6.8874947037451955e-06,
      "longitude_deg": 112.07808457081477,
      "height_km": 574.4944069879198,
      "semi_major_axis_km": 6950.172963477404,
      "eccentricity": 0.00031153,
      "inclination_deg": 69.9996,
      "raan_deg": 263.6468,
      "arg_perigee_deg": 269.1825,
      "mean_anomaly_deg": 90.8977,
      "mean_motion_rev_day": 14.98336444
    },
    {
      "epoch": "2026-03-30T13:38:25.058976Z",
      "apogee_km": 574.1342326746026,
      "perigee_km": 569.9546715565584,
      "latitude_deg": 5.0652656836022864e-05,
      "longitude_deg": -130.599305793881,
      "height_km": 574.4724605591433,
      "semi_major_axis_km": 6950.18145211558,
      "eccentricity": 0.00030068,
      "inclination_deg": 70.0,
      "raan_deg": 261.9633,
      "arg_perigee_deg": 269.985,
      "mean_anomaly_deg": 90.0965,
      "mean_motion_rev_day": 14.98333699
    },
    {
      "epoch": "2026-03-30T21:39:05.378112Z",
      "apogee_km": 574.1580454750265,
      "perigee_km": 569.9285827466783,
      "latitude_deg": 6.153219009033181e-05,
      "longitude_deg": 108.06209384686711,
      "height_km": 574.4674253526185,
      "semi_major_axis_km": 6950.180314110852,
      "eccentricity": 0.00030427,
      "inclination_deg": 69.9999,
      "raan_deg": 261.1217,
      "arg_perigee_deg": 270.0915,
      "mean_anomaly_deg": 89.9896,
      "mean_motion_rev_day": 14.98334067
    },
    {
      "epoch": "2026-03-31T10:28:09.890112Z",
      "apogee_km": 574.1679877889101,
      "perigee_km": 569.917118970473,
      "latitude_deg": 3.460826273662269e-05,
      "longitude_deg": -86.07992844285454,
      "height_km": 574.4316615588716,
      "semi_major_axis_km": 6950.179553379691,
      "eccentricity": 0.00030581,
      "inclination_deg": 70.0,
      "raan_deg": 259.7749,
      "arg_perigee_deg": 271.0352,
      "mean_anomaly_deg": 89.0457,
      "mean_motion_rev_day": 14.98334313
    },
    {
      "epoch": "2026-04-01T16:54:42.945408Z",
      "apogee_km": 574.1561623203252,
      "perigee_km": 569.9123877397924,
      "latitude_deg": -3.3171269763422034e-05,
      "longitude_deg": 172.83328860142447,
      "height_km": 574.3903639766434,
      "semi_major_axis_km": 6950.1712750300585,
      "eccentricity": 0.0003053,
      "inclination_deg": 69.9997,
      "raan_deg": 256.5761,
      "arg_perigee_deg": 271.9282,
      "mean_anomaly_deg": 88.1527,
      "mean_motion_rev_day": 14.9833699
    },
    {
      "epoch": "2026-04-02T16:56:43.881216Z",
      "apogee_km": 574.0683718239125,
      "perigee_km": 569.9883467513955,
      "latitude_deg": 2.2110811923275083e-05,
      "longitude_deg": 168.81698566619554,
      "height_km": 574.4047326940128,
      "semi_major_axis_km": 6950.165359287654,
      "eccentricity": 0.00029352,
      "inclination_deg": 70.0002,
      "raan_deg": 254.0507,
      "arg_perigee_deg": 271.4334,
      "mean_anomaly_deg": 88.6489,
      "mean_motion_rev_day": 14.98338903
    },
    {
      "epoch": "2026-04-03T18:34:52.885344Z",
      "apogee_km": 574.2700238168054,
      "perigee_km": 569.7843878383655,
      "latitude_deg": -2.278288997658602e-05,
      "longitude_deg": 140.53362605146444,
      "height_km": 574.4471472982717,
      "semi_major_axis_km": 6950.164205827586,
      "eccentricity": 0.0003227,
      "inclination_deg": 70.0009,
      "raan_deg": 251.3577,
      "arg_perigee_deg": 270.1995,
      "mean_anomaly_deg": 89.8794,
      "mean_motion_rev_day": 14.98339276
    },
    {
      "epoch": "2026-04-04T20:13:01.771968Z",
      "apogee_km": 574.3409029436325,
      "perigee_km": 569.7218210502497,
      "latitude_deg": -2.8650708674150177e-05,
      "longitude_deg": 112.25047053906489,
      "height_km": 574.4144891862011,
      "semi_major_axis_km": 6950.168361996941,
      "eccentricity": 0.0003323,
      "inclination_deg": 70.0013,
      "raan_deg": 248.6644,
      "arg_perigee_deg": 271.1099,
      "mean_anomaly_deg": 88.9679,
      "mean_motion_rev_day": 14.98337932
    },
    {
      "epoch": "2026-04-05T13:50:30.612480Z",
      "apogee_km": 574.2094924496841,
      "perigee_km": 569.8991228045197,
      "latitude_deg": 2.4942378471291646e-05,
      "longitude_deg": -154.69449984808625,
      "height_km": 574.5119506085704,
      "semi_major_axis_km": 6950.191307627102,
      "eccentricity": 0.00031009,
      "inclination_deg": 70.0021,
      "raan_deg": 246.8134,
      "arg_perigee_deg": 269.2041,
      "mean_anomaly_deg": 90.8763,
      "mean_motion_rev_day": 14.98330512
    },
    {
      "epoch": "2026-04-05T20:15:02.896128Z",
      "apogee_km": 574.2685817538959,
      "perigee_km": 569.8361679819673,
      "latitude_deg": -2.7931500963697045e-06,
      "longitude_deg": 108.23406748499978,
      "height_km": 574.6707376381504,
      "semi_major_axis_km": 6950.189374867931,
      "eccentricity": 0.00031887,
      "inclination_deg": 70.0018,
      "raan_deg": 246.1397,
      "arg_perigee_deg": 265.0669,
      "mean_anomaly_deg": 95.0126,
      "mean_motion_rev_day": 14.98331137
    },
    {
      "epoch": "2026-04-07T12:18:24.541920Z",
      "apogee_km": 574.174419255839,
      "perigee_km": 569.9371647182761,
      "latitude_deg": 7.5288217538378505e-06,
      "longitude_deg": -138.45806583204546,
      "height_km": 574.5519921639003,
      "semi_major_axis_km": 6950.192791987058,
      "eccentricity": 0.00030483,
      "inclination_deg": 70.002,
      "raan_deg": 241.9328,
      "arg_perigee_deg": 268.1459,
      "mean_anomaly_deg": 91.9351,
      "mean_motion_rev_day": 14.98330032
    },
    {
      "epoch": "2026-04-07T18:42:56.960352Z",
      "apogee_km": 574.2488316981562,
      "perigee_km": 569.893831157684,
      "latitude_deg": -6.449062536045826e-05,
      "longitude_deg": 124.47042203055662,
      "height_km": 574.628861268933,
      "semi_major_axis_km": 6950.20833142792,
      "eccentricity": 0.0003133,
      "inclination_deg": 70.0021,
      "raan_deg": 241.2596,
      "arg_perigee_deg": 266.5831,
      "mean_anomaly_deg": 93.4969,
      "mean_motion_rev_day": 14.98325007
    },
    {
      "epoch": "2026-04-08T15:32:41.876160Z",
      "apogee_km": 574.3755385249315,
      "perigee_km": 569.7200267501285,
      "latitude_deg": -6.68286529715306e-05,
      "longitude_deg": 168.98884681948257,
      "height_km": 574.5874449328419,
      "semi_major_axis_km": 6950.18478263753,
      "eccentricity": 0.00033492,
      "inclination_deg": 70.0015,
      "raan_deg": 239.0706,
      "arg_perigee_deg": 267.2485,
      "mean_anomaly_deg": 92.829,
      "mean_motion_rev_day": 14.98332622
    },
    {
      "epoch": "2026-04-09T18:46:58.746432Z",
      "apogee_km": 574.3759427105897,
      "perigee_km": 569.6762424273938,
      "latitude_deg": -3.877873084383817e-06,
      "longitude_deg": 116.43814772731683,
      "height_km": 574.5634379317938,
      "semi_major_axis_km": 6950.1630925689915,
      "eccentricity": 0.0003381,
      "inclination_deg": 70.0012,
      "raan_deg": 236.2088,
      "arg_perigee_deg": 267.3312,
      "mean_anomaly_deg": 92.746,
      "mean_motion_rev_day": 14.98339636
    },
    {
      "epoch": "2026-04-10T12:24:27.288864Z",
      "apogee_km": 574.376765486415,
      "perigee_km": 569.6812333372109,
      "latitude_deg": -2.710597711349778e-05,
      "longitude_deg": -150.50600574789863,
      "height_km": 574.5533763648244,
      "semi_major_axis_km": 6950.165999411813,
      "eccentricity": 0.0003378,
      "inclination_deg": 70.001,
      "raan_deg": 234.3574,
      "arg_perigee_deg": 267.6452,
      "mean_anomaly_deg": 92.432,
      "mean_motion_rev_day": 14.98338696
    },
    {
      "epoch": "2026-04-11T18:51:00.187776Z",
      "apogee_km": 574.3652358839945,
      "perigee_km": 569.6905549753283,
      "latitude_deg": 1.921205667821194e-06,
      "longitude_deg": 108.40909568739224,
      "height_km": 574.5482690127504,
      "semi_major_axis_km": 6950.164895429661,
      "eccentricity": 0.0003363,
      "inclination_deg": 70.001,
      "raan_deg": 231.1598,
      "arg_perigee_deg": 267.7325,
      "mean_anomaly_deg": 92.3449,
      "mean_motion_rev_day": 14.98339053
    },
    {
      "epoch": "2026-04-13T01:17:33.426240Z",
      "apogee_km": 574.3877943286543,
      "perigee_km": 569.6975350837238,
      "latitude_deg": -3.963448239633622e-05,
      "longitude_deg": 7.321754463225848,
      "height_km": 574.5039718160775,
      "semi_major_axis_km": 6950.179664706189,
      "eccentricity": 0.00033742,
      "inclination_deg": 70.0012,
      "raan_deg": 227.9612,
      "arg_perigee_deg": 269.1841,
      "mean_anomaly_deg": 90.8931,
      "mean_motion_rev_day": 14.98334277
    }
  ]
}